start=new Date('2022-10-25T00:00:00.000Z').valueOf();
sats=[{"MEAN_MOTION":"15.06389877","EPHEMERIS_TYPE":"0","APOAPSIS":"548.919","OBJECT_ID":"2020-070AU","REV_AT_EPOCH":"11399","TLE_LINE1":"1 46574U 20070AU  22297.47378705 -.00001242  00000-0 -64500-4 0  9998","ECCENTRICITY":"0.00024180","INCLINATION":"53.0543","DECAY_DATE":null,"LAUNCH_DATE":"2020-10-06","GP_ID":"216035769","REF_FRAME":"TEME","SEMIMAJOR_AXIS":"6925.380","TIME_SYSTEM":"UTC","MEAN_ANOMALY":"314.9691","MEAN_ELEMENT_THEORY":"SGP4","CLASSIFICATION_TYPE":"U","BSTAR":"-0.00006450000000","CENTER_NAME":"EARTH","PERIAPSIS":"545.570","COUNTRY_CODE":"US","MEAN_MOTION_DOT":"-0.00001242","RCS_SIZE":"LARGE","NORAD_CAT_ID":"46574","OBJECT_NAME":"STARLINK-1660","MEAN_MOTION_DDOT":"0.0000000000000","ARG_OF_PERICENTER":"45.1494","OBJECT_TYPE":"PAYLOAD","PERIOD":"95.593","FILE":"3631438","EPOCH":"2022-10-24T11:22:15.201120","ELEMENT_SET_NO":"999","RA_OF_ASC_NODE":"293.2617","TLE_LINE2":"2 46574  53.0543 293.2617 0002418  45.1494 314.9691 15.06389877113990","SITE":"AFETR"},{"CENTER_NAME":"EARTH","BSTAR":"-0.00010973000000","PERIAPSIS":"545.629","GP_ID":"216035518","TIME_SYSTEM":"UTC","MEAN_ANOMALY":"312.1964","REF_FRAME":"TEME","SEMIMAJOR_AXIS":"6925.367","CLASSIFICATION_TYPE":"U","MEAN_ELEMENT_THEORY":"SGP4","ECCENTRICITY":"0.00023160","TLE_LINE1":"1 46575U 20070AV  22297.39683892 -.00001916  00000-0 -10973-3 0  9998","INCLINATION":"53.0532","DECAY_DATE":null,"LAUNCH_DATE":"2020-10-06","EPHEMERIS_TYPE":"0","MEAN_MOTION":"15.06393836","OBJECT_ID":"2020-070AV","REV_AT_EPOCH":"11432","APOAPSIS":"548.836","TLE_LINE2":"2 46575  53.0532 268.6100 0002316  47.9222 312.1964 15.06393836114329","SITE":"AFETR","FILE":"3631438","PERIOD":"95.593","EPOCH":"2022-10-24T09:31:26.882688","RA_OF_ASC_NODE":"268.6100","ELEMENT_SET_NO":"999","MEAN_MOTION_DDOT":"0.0000000000000","ARG_OF_PERICENTER":"47.9222","OBJECT_TYPE":"PAYLOAD","COUNTRY_CODE":"US","MEAN_MOTION_DOT":"-0.00001916","OBJECT_NAME":"STARLINK-1675","NORAD_CAT_ID":"46575","RCS_SIZE":"LARGE"},{"TLE_LINE1":"1 46576U 20070AW  22297.46641754 -.00001247  00000-0 -64824-4 0  9990","ECCENTRICITY":"0.00025440","INCLINATION":"53.0552","DECAY_DATE":null,"LAUNCH_DATE":"2020-10-06","MEAN_MOTION":"15.06385410","EPHEMERIS_TYPE":"0","APOAPSIS":"549.020","REV_AT_EPOCH":"11399","OBJECT_ID":"2020-070AW","BSTAR":"-0.00006482400000","CENTER_NAME":"EARTH","PERIAPSIS":"545.496","GP_ID":"216036766","SEMIMAJOR_AXIS":"6925.393","REF_FRAME":"TEME","MEAN_ANOMALY":"319.6795","TIME_SYSTEM":"UTC","MEAN_ELEMENT_THEORY":"SGP4","CLASSIFICATION_TYPE":"U","MEAN_MOTION_DDOT":"0.0000000000000","ARG_OF_PERICENTER":"40.4383","OBJECT_TYPE":"PAYLOAD","COUNTRY_CODE":"US","MEAN_MOTION_DOT":"-0.00001247","RCS_SIZE":"LARGE","NORAD_CAT_ID":"46576","OBJECT_NAME":"STARLINK-1677","TLE_LINE2":"2 46576  53.0552 293.2854 0002544  40.4383 319.6795 15.06385410113996","SITE":"AFETR","PERIOD":"95.593","FILE":"3631438","EPOCH":"2022-10-24T11:11:38.475456","ELEMENT_SET_NO":"999","RA_OF_ASC_NODE":"293.2854"},{"COUNTRY_CODE":"US","MEAN_MOTION_DOT":"0.00001417","RCS_SIZE":"LARGE","NORAD_CAT_ID":"46577","OBJECT_NAME":"STARLINK-1682","MEAN_MOTION_DDOT":"0.0000000000000","ARG_OF_PERICENTER":"51.7825","OBJECT_TYPE":"PAYLOAD","PERIOD":"95.592","FILE":"3631438","EPOCH":"2022-10-24T05:31:55.541280","ELEMENT_SET_NO":"999","RA_OF_ASC_NODE":"294.3346","TLE_LINE2":"2 46577  53.0542 294.3346 0002040  51.7825 308.3347 15.06403595113950","SITE":"AFETR","MEAN_MOTION":"15.06403595","EPHEMERIS_TYPE":"0","APOAPSIS":"548.615","OBJECT_ID":"2020-070AX","REV_AT_EPOCH":"11395","TLE_LINE1":"1 46577U 20070AX  22297.23050395  .00001417  00000-0  11400-3 0  9999","ECCENTRICITY":"0.00020400","INCLINATION":"53.0542","LAUNCH_DATE":"2020-10-06","DECAY_DATE":null,"GP_ID":"216036516","REF_FRAME":"TEME","SEMIMAJOR_AXIS":"6925.338","MEAN_ANOMALY":"308.3347","TIME_SYSTEM":"UTC","MEAN_ELEMENT_THEORY":"SGP4","CLASSIFICATION_TYPE":"U","BSTAR":"0.00011400000000","CENTER_NAME":"EARTH","PERIAPSIS":"545.790"},{"MEAN_MOTION_DDOT":"0.0000000000000","ARG_OF_PERICENTER":"49.2897","OBJECT_TYPE":"PAYLOAD","COUNTRY_CODE":"US","MEAN_MOTION_DOT":"0.00000354","RCS_SIZE":"LARGE","OBJECT_NAME":"STARLINK-1683","NORAD_CAT_ID":"46578","TLE_LINE2":"2 46578  53.0539 278.8915 0002042  49.2897 310.8270 15.06394543114180","SITE":"AFETR","PERIOD":"95.592","FILE":"3631438","EPOCH":"2022-10-24T08:15:49.067424","ELEMENT_SET_NO":"999","RA_OF_ASC_NODE":"278.8915","TLE_LINE1":"1 46578U 20070AY  22297.34431791  .00000354  00000-0  42692-4 0  9992","ECCENTRICITY":"0.00020420","INCLINATION":"53.0539","LAUNCH_DATE":"2020-10-06","DECAY_DATE":null,"MEAN_MOTION":"15.06394543","EPHEMERIS_TYPE":"0","APOAPSIS":"548.644","REV_AT_EPOCH":"11418","OBJECT_ID":"2020-070AY","BSTAR":"0.00004269200000","CENTER_NAME":"EARTH","PERIAPSIS":"545.816","GP_ID":"216035269","REF_FRAME":"TEME","SEMIMAJOR_AXIS":"6925.365","TIME_SYSTEM":"UTC","MEAN_ANOMALY":"310.8270","MEAN_ELEMENT_THEORY":"SGP4","CLASSIFICATION_TYPE":"U"},{"RA_OF_ASC_NODE":"293.2241","ELEMENT_SET_NO":"999","EPOCH":"2022-10-24T11:32:52.231776","FILE":"3631438","PERIOD":"95.593","SITE":"AFETR","TLE_LINE2":"2 46579  53.0558 293.2241 0001765  49.7399 310.3744 15.06389292113992","OBJECT_NAME":"STARLINK-1705","NORAD_CAT_ID":"46579","RCS_SIZE":"LARGE","MEAN_MOTION_DOT":"-0.00000242","COUNTRY_CODE":"US","OBJECT_TYPE":"PAYLOAD","ARG_OF_PERICENTER":"49.7399","MEAN_MOTION_DDOT":"0.0000000000000","CLASSIFICATION_TYPE":"U","MEAN_ELEMENT_THEORY":"SGP4","TIME_SYSTEM":"UTC","MEAN_ANOMALY":"310.3744","REF_FRAME":"TEME","SEMIMAJOR_AXIS":"6925.381","GP_ID":"216036017","PERIAPSIS":"546.024","CENTER_NAME":"EARTH","BSTAR":"0.00000263100000","REV_AT_EPOCH":"11399","OBJECT_ID":"2020-070AZ","APOAPSIS":"548.469","EPHEMERIS_TYPE":"0","MEAN_MOTION":"15.06389292","DECAY_DATE":null,"LAUNCH_DATE":"2020-10-06","INCLINATION":"53.0558","ECCENTRICITY":"0.00017650","TLE_LINE1":"1 46579U 20070AZ  22297.48116009 -.00000242  00000-0  26310-5 0  9997"},{"MEAN_MOTION_DDOT":"0.0000000000000","ARG_OF_PERICENTER":"36.8536","OBJECT_TYPE":"PAYLOAD","COUNTRY_CODE":"US","MEAN_MOTION_DOT":"0.00000778","OBJECT_NAME":"STARLINK-1708","NORAD_CAT_ID":"46580","RCS_SIZE":"LARGE","TLE_LINE2":"2 46580  53.0560 293.6198 0002369  36.8536 323.2616 15.06397048113981","SITE":"AFETR","FILE":"3631438","PERIOD":"95.592","EPOCH":"2022-10-24T09:25:28.230240","RA_OF_ASC_NODE":"293.6198","ELEMENT_SET_NO":"999","ECCENTRICITY":"0.00023690","TLE_LINE1":"1 46580U 20070BA  22297.39268785  .00000778  00000-0  71161-4 0  9994","INCLINATION":"53.0560","LAUNCH_DATE":"2020-10-06","DECAY_DATE":null,"EPHEMERIS_TYPE":"0","MEAN_MOTION":"15.06397048","REV_AT_EPOCH":"11398","OBJECT_ID":"2020-070BA","APOAPSIS":"548.863","CENTER_NAME":"EARTH","BSTAR":"0.00007116100000","PERIAPSIS":"545.582","GP_ID":"216036266","MEAN_ANOMALY":"323.2616","TIME_SYSTEM":"UTC","SEMIMAJOR_AXIS":"6925.358","REF_FRAME":"TEME","CLASSIFICATION_TYPE":"U","MEAN_ELEMENT_THEORY":"SGP4"},{"SEMIMAJOR_AXIS":"6925.357","REF_FRAME":"TEME","TIME_SYSTEM":"UTC","MEAN_ANOMALY":"311.1665","MEAN_ELEMENT_THEORY":"SGP4","CLASSIFICATION_TYPE":"U","GP_ID":"216037017","PERIAPSIS":"545.859","BSTAR":"-0.00004051000000","CENTER_NAME":"EARTH","APOAPSIS":"548.585","REV_AT_EPOCH":"11404","OBJECT_ID":"2020-070BB","MEAN_MOTION":"15.06397247","EPHEMERIS_TYPE":"0","LAUNCH_DATE":"2020-10-06","DECAY_DATE":null,"TLE_LINE1":"1 46581U 20070BB  22297.35813611 -.00000885  00000-0 -40510-4 0  9990","ECCENTRICITY":"0.00019680","INCLINATION":"53.0542","ELEMENT_SET_NO":"999","RA_OF_ASC_NODE":"288.7762","PERIOD":"95.592","FILE":"3631438","EPOCH":"2022-10-24T08:35:42.959904","TLE_LINE2":"2 46581  53.0542 288.7762 0001968  48.9493 311.1665 15.06397247114043","SITE":"AFETR","MEAN_MOTION_DOT":"-0.00000885","RCS_SIZE":"LARGE","OBJECT_NAME":"STARLINK-1712","NORAD_CAT_ID":"46581","COUNTRY_CODE":"US","OBJECT_TYPE":"PAYLOAD","MEAN_MOTION_DDOT":"0.0000000000000","ARG_OF_PERICENTER":"48.9493"},{"COUNTRY_CODE":"US","RCS_SIZE":"LARGE","OBJECT_NAME":"STARLINK-1728","NORAD_CAT_ID":"46582","MEAN_MOTION_DOT":"-0.00002356","ARG_OF_PERICENTER":"45.1654","MEAN_MOTION_DDOT":"0.0000000000000","OBJECT_TYPE":"PAYLOAD","EPOCH":"2022-10-24T06:38:56.316480","PERIOD":"95.592","FILE":"3631438","ELEMENT_SET_NO":"999","RA_OF_ASC_NODE":"289.1483","SITE":"AFETR","TLE_LINE2":"2 46582  53.0556 289.1483 0001870  45.1654 314.9487 15.06407644114039","MEAN_MOTION":"15.06407644","EPHEMERIS_TYPE":"0","APOAPSIS":"548.485","REV_AT_EPOCH":"11403","OBJECT_ID":"2020-070BC","INCLINATION":"53.0556","TLE_LINE1":"1 46582U 20070BC  22297.27704070 -.00002356  00000-0 -13927-3 0  9996","ECCENTRICITY":"0.00018700","DECAY_DATE":null,"LAUNCH_DATE":"2020-10-06","GP_ID":"216035770","MEAN_ELEMENT_THEORY":"SGP4","CLASSIFICATION_TYPE":"U","SEMIMAJOR_AXIS":"6925.325","REF_FRAME":"TEME","MEAN_ANOMALY":"314.9487","TIME_SYSTEM":"UTC","BSTAR":"-0.00013927000000","CENTER_NAME":"EARTH","PERIAPSIS":"545.895"},{"COUNTRY_CODE":"US","NORAD_CAT_ID":"46583","OBJECT_NAME":"STARLINK-1729","RCS_SIZE":"LARGE","MEAN_MOTION_DOT":"-0.00000157","ARG_OF_PERICENTER":"50.5171","MEAN_MOTION_DDOT":"0.0000000000000","OBJECT_TYPE":"PAYLOAD","EPOCH":"2022-10-24T07:50:35.614176","FILE":"3631438","PERIOD":"95.592","RA_OF_ASC_NODE":"308.9189","ELEMENT_SET_NO":"999","SITE":"AFETR","TLE_LINE2":"2 46583  53.0563 308.9189 0001943  50.5171 309.5990 15.06398427113751","EPHEMERIS_TYPE":"0","MEAN_MOTION":"15.06398427","REV_AT_EPOCH":"11375","OBJECT_ID":"2020-070BD","APOAPSIS":"548.564","INCLINATION":"53.0563","ECCENTRICITY":"0.00019430","TLE_LINE1":"1 46583U 20070BD  22297.32680109 -.00000157  00000-0  83819-5 0  9994","LAUNCH_DATE":"2020-10-06","DECAY_DATE":null,"GP_ID":"216035519","CLASSIFICATION_TYPE":"U","MEAN_ELEMENT_THEORY":"SGP4","TIME_SYSTEM":"UTC","MEAN_ANOMALY":"309.5990","REF_FRAME":"TEME","SEMIMAJOR_AXIS":"6925.353","CENTER_NAME":"EARTH","BSTAR":"0.00000838190000","PERIAPSIS":"545.873"}];
